[{"OBJECT_NAME":"KUIPER-00070","OBJECT_ID":"2025-151B","EPOCH":"2026-03-09T20:32:33.833760","MEAN_MOTION":14.799361,"ECCENTRICITY":9.451e-5,"INCLINATION":51.9,"RA_OF_ASC_NODE":304.8248,"ARG_OF_PERICENTER":102.7727,"MEAN_ANOMALY":257.3341,"EPHEMERIS_TYPE":0,"CLASSIFICATION_TYPE":"U","NORAD_CAT_ID":64817,"ELEMENT_SET_NO":999,"REV_AT_EPOCH":3644,"BSTAR":0.00022632458,"MEAN_MOTION_DOT":1.505e-5,"MEAN_MOTION_DDOT":0},{"OBJECT_NAME":"ELECTRON KICK STAGE R\/B","OBJECT_ID":"2025-028A","EPOCH":"2026-03-09T17:13:06.018528","MEAN_MOTION":14.88776809,"ECCENTRICITY":0.00403458,"INCLINATION":97.9006,"RA_OF_ASC_NODE":129.2142,"ARG_OF_PERICENTER":174.9077,"MEAN_ANOMALY":185.2558,"EPHEMERIS_TYPE":0,"CLASSIFICATION_TYPE":"U","NORAD_CAT_ID":62928,"ELEMENT_SET_NO":999,"REV_AT_EPOCH":5854,"BSTAR":0.00040796816,"MEAN_MOTION_DOT":3.817e-5,"MEAN_MOTION_DDOT":0}]
